SITRO-AIS 31            
1 59054U 24039D   24318.55937323  .00058715  00000+0  13259-2 0  9993
2 59054  97.4057 280.7897 0016542  56.4985 303.7840 15.42858639 39506
SITRO-AIS 33            
1 59055U 24039E   24318.60444515  .00056448  00000+0  12704-2 0  9991
2 59055  97.4060 280.8936 0016220  57.0470 303.2334 15.42976057 39503
SITRO-AIS 35            
1 59056U 24039F   24318.59928413  .00057152  00000+0  12832-2 0  9999
2 59056  97.4059 280.8955 0016095  57.6434 302.6369 15.43045659 39506
SITRO-AIS 32            
1 59057U 24039G   24318.55776796  .00056244  00000+0  12772-2 0  9995
2 59057  97.4064 280.8043 0016403  57.8149 302.4686 15.42705743 39493
SITRO-AIS 34            
1 59058U 24039H   24318.60390544  .00055402  00000+0  12461-2 0  9995
2 59058  97.4061 280.8960 0016139  57.0645 303.2152 15.43000460 39502
SITRO-AIS 36            
1 59059U 24039J   24318.58562081  .00056967  00000+0  12762-2 0  9991
2 59059  97.4062 280.9145 0016082  57.7089 302.5714 15.43113061 39504
SITRO-AIS 49            
1 59060U 24039K   24318.59778529  .00057320  00000+0  12955-2 0  9998
2 59060  97.4063 280.9011 0016017  57.0312 303.2473 15.42849136 39507
SITRO-AIS 50            
1 59061U 24039L   24318.56132295  .00058573  00000+0  12995-2 0  9995
2 59061  97.4060 280.9448 0015998  57.2937 302.9850 15.43396401 39509
SITRO-AIS 51            
1 59062U 24039M   24318.56025469  .00059618  00000+0  13201-2 0  9992
2 59062  97.4058 280.9449 0015862  57.9134 302.3652 15.43452386 39503
SITRO-AIS 52            
1 59063U 24039N   24318.54328552  .00053793  00000+0  11889-2 0  9998
2 59063  97.4061 280.9716 0015707  57.6104 302.6661 15.43537141 39503
SITRO-AIS 25            
1 59066U 24039R   24318.61698434  .00007675  00000+0  69212-3 0  9990
2 59066  95.3892 198.6747 0163200 187.2514 172.6347 14.85982345 38275
SITRO-AIS 26            
1 59067U 24039S   24318.62330827  .00007841  00000+0  70910-3 0  9993
2 59067  95.3892 198.6681 0163354 187.3079 172.5761 14.85858695 38279
SITRO-AIS 27            
1 59068U 24039T   24318.59325624  .00006673  00000+0  60067-3 0  9993
2 59068  95.3893 198.7020 0162780 187.0976 172.7941 14.86126777 38276
SITRO-AIS 28            
1 59071U 24039U   24318.58609679  .00006557  00000+0  58991-3 0  9995
2 59071  95.3895 198.7110 0162591 187.0781 172.8145 14.86173301 38278
GRBBETA                 
1 60237U 24128C   24318.63290381  .00007592  00000+0  63010-3 0  9990
2 60237  61.9933  82.8152 0026101   2.7295 357.3931 14.99285449 18984
OOV-CUBE (TUBSAT-30)    
1 60240U 24128F   24318.57027758  .00005369  00000+0  46589-3 0  9995
2 60240  61.9970  83.6626 0024151 357.5843   2.5125 14.98025838 18973
ROBUSTA-3A (MEDITERRAN*)
1 60243U 24128J   24318.62243993  .00011674  00000+0  95919-3 0  9992
2 60243  61.9903  83.2642 0024441 349.7961  10.2628 14.99328894 18986
BEIJING 1               
1 28890U 05043A   24318.57873604  .00001266  00000+0  25748-3 0  9990
2 28890  98.2190  80.5449 0013747 301.4020  58.5837 14.62758996 15740
HUANJING 1A (HJ-1A)     
1 33320U 08041A   24318.52709183  .00003408  00000+0  44202-3 0  9996
2 33320  97.6345 318.3148 0018248 241.1420 118.7962 14.81295037872351
HUANJING 1B (HJ-1B)     
1 33321U 08041B   24318.58428229  .00003021  00000+0  39002-3 0  9995
2 33321  97.6270 322.8286 0036213 288.4340  71.2938 14.81226292872396
YAOGAN-4                
1 33446U 08061A   24318.54500564  .00002921  00000+0  38363-3 0  9991
2 33446  97.8887 247.7355 0015303 154.5448 205.6522 14.80934729859657
DEIMOS-1                
1 35681U 09041A   24318.58225859  .00002264  00000+0  35200-3 0  9995
2 35681  97.6841 132.6193 0000010 270.1579  89.9629 14.73944025821314
UK-DMC 2                
1 35683U 09041C   24318.57789686  .00002561  00000+0  39489-3 0  9992
2 35683  97.8020 100.3523 0001199  79.2221 280.9123 14.74221227820962
DMC3-FM1                
1 40715U 15032A   24318.58459195  .00001938  00000+0  23676-3 0  9999
2 40715  97.7250 192.9790 0006218 149.2300 210.9281 14.84385023503731
DMC3-FM2                
1 40716U 15032B   24318.53944547  .00002184  00000+0  26593-3 0  9990
2 40716  97.7304 194.1053 0007880 156.9924 203.1645 14.84381263503720
DMC3-FM3                
1 40717U 15032C   24318.57331631  .00002389  00000+0  29099-3 0  9990
2 40717  97.7356 195.4848 0009350 156.1350 204.0300 14.84286200503737
NOAA 15                 
1 25338U 98030A   24318.54829715  .00000552  00000+0  24531-3 0  9999
2 25338  98.5567 342.4911 0009246 245.5258 114.4959 14.26794812378486
DMSP 5D-3 F16 (USA 172) 
1 28054U 03048A   24318.59471590  .00000506  00000+0  28947-3 0  9995
2 28054  99.0215 326.4917 0007258 358.8996 110.4161 14.14198718 87417
NOAA 18                 
1 28654U 05018A   24318.51523294  .00000583  00000+0  33330-3 0  9998
2 28654  98.8635  34.1694 0014094   4.1140 356.0145 14.13419400  4275
METEOSAT-9 (MSG-2)      
1 28912U 05049B   24316.60108080  .00000137  00000+0  00000+0 0  9998
2 28912   8.0272  59.5907 0001874 183.3079  70.4578  1.00268522  1164
EWS-G1 (GOES 13)        
1 29155U 06018A   24318.48235314  .00000066  00000+0  00000+0 0  9995
2 29155   3.0142  83.4631 0063213 256.2451 129.8808  0.98828201 37519
DMSP 5D-3 F17 (USA 191) 
1 29522U 06050A   24318.57481031  .00000565  00000+0  31624-3 0  9992
2 29522  98.7435 326.0841 0009002 274.7092  85.3053 14.14661887930310
FENGYUN 3A              
1 32958U 08026A   24318.57016308  .00000536  00000+0  27579-3 0  9997
2 32958  98.6225 261.4928 0008972   9.4122 350.7221 14.19278091853038
NOAA 19                 
1 33591U 09005A   24318.55917247  .00000535  00000+0  30983-3 0  9991
2 33591  99.0288  15.8132 0013125 228.4303 131.5744 14.13198511812463
GOES 14                 
1 35491U 09033A   24318.45448421 -.00000056  00000+0  00000+0 0  9997
2 35491   0.1713  91.9790 0003475 111.2447 264.8895  1.00271330   773
DMSP 5D-3 F18 (USA 210) 
1 35951U 09057A   24318.54345465  .00000690  00000+0  38314-3 0  9994
2 35951  98.8344 292.0436 0012170  99.9066 260.3481 14.14381773777494
EWS-G2 (GOES 15)        
1 36411U 10008A   24318.41438406  .00000045  00000+0  00000+0 0  9999
2 36411   0.2115 273.2757 0007171 328.0580  22.4452  1.00275534 53814
COMS 1                  
1 36744U 10032A   24317.67313623 -.00000333  00000+0  00000+0 0  9996
2 36744   3.3287  82.8850 0001142 169.4483 170.4662  1.00268855 45250
FENGYUN 3B              
1 37214U 10059A   24318.60607462  .00000324  00000+0  19198-3 0  9990
2 37214  99.0413 348.7010 0022668  32.7732  81.4931 14.14620976725332
SUOMI NPP               
1 37849U 11061A   24318.53997463  .00000355  00000+0  18909-3 0  9996
2 37849  98.7359 254.3455 0001450 122.8569 237.2747 14.19562101676051
FENGYUN 2F              
1 38049U 12002A   24318.42745122 -.00000269  00000+0  00000+0 0  9990
2 38049   6.1110  72.4985 0002744 155.6721 133.1748  0.99140634 47042
METEOSAT-10 (MSG-3)     
1 38552U 12035B   24318.29111000  .00000005  00000+0  00000+0 0  9999
2 38552   3.3049  61.7181 0001341 223.7281 232.3207  1.00273682 45032
METOP-B                 
1 38771U 12049A   24318.60704603  .00000474  00000+0  23596-3 0  9998
2 38771  98.6092  12.3389 0001215  80.1810 279.9505 14.21584267630786
INSAT-3D                
1 39216U 13038B   24318.49354721 -.00000329  00000+0  00000+0 0  9992
2 39216   0.4183  90.8001 0001959 164.8596 104.6382  1.00273181 41259
FENGYUN 3C              
1 39260U 13052A   24318.58742301  .00000387  00000+0  21570-3 0  9994
2 39260  98.4388 310.3544 0009938 254.8997 105.1079 14.16343487576412
METEOR-M 2              
1 40069U 14037A   24318.58304557  .00000538  00000+0  26683-3 0  9992
2 40069  98.4497 306.2505 0004638 289.1767  70.8909 14.21135388536849
HIMAWARI-8              
1 40267U 14060A   24318.53335199 -.00000267  00000+0  00000+0 0  9990
2 40267   0.0250  92.3070 0001296 169.9534 123.5136  1.00266970 36937
FENGYUN 2G              
1 40367U 14090A   24318.49563296 -.00000291  00000+0  00000+0 0  9997
2 40367   4.1582  79.8084 0002239 180.7324  70.6693  1.00270333 36176
METEOSAT-11 (MSG-4)     
1 40732U 15034A   24318.57887738  .00000073  00000+0  00000+0 0  9998
2 40732   1.7490  71.3085 0001275 179.6637  19.8314  1.00273835  1395
ELEKTRO-L 2             
1 41105U 15074A   24318.57418584 -.00000105  00000+0  00000+0 0  9993
2 41105   5.2210  77.6378 0003835 181.5795 346.1782  1.00271990 32685
INSAT-3DR               
1 41752U 16054A   24318.52023304 -.00000068  00000+0  00000+0 0  9995
2 41752   0.1139  91.9886 0013945 174.2275  48.1973  1.00271529 29994
HIMAWARI-9              
1 41836U 16064A   24318.48382686 -.00000265  00000+0  00000+0 0  9994
2 41836   0.0516 132.2897 0000959  99.8405 135.9212  1.00271550 29382
GOES 16                 
1 41866U 16071A   24318.49060681 -.00000238  00000+0  00000+0 0  9994
2 41866   0.0195 271.4801 0001062  16.6515 226.4131  1.00272095 29284
FENGYUN 4A              
1 41882U 16077A   24318.59416834 -.00000188  00000+0  00000+0 0  9998
2 41882   0.8362  85.8211 0009072 339.1096 288.6871  1.00272333 29101
CYGFM05                 
1 41884U 16078A   24318.57252389  .00018122  00000+0  56091-3 0  9993
2 41884  34.9628  72.0170 0010636 121.9888 238.1864 15.32533528438968
CYGFM04                 
1 41885U 16078B   24318.53079261  .00018373  00000+0  54944-3 0  9999
2 41885  34.9381  54.6977 0009970 139.7468 220.3989 15.33624858439067
CYGFM02                 
1 41886U 16078C   24318.51967115  .00018751  00000+0  54831-3 0  9997
2 41886  34.9475  56.6088 0012282 130.0469 230.1327 15.34302074439151
CYGFM01                 
1 41887U 16078D   24318.57657939  .00017861  00000+0  55735-3 0  9999
2 41887  34.9465  76.0174 0010869 104.0675 256.1250 15.32272141438894
